{ "teams": [
  {
    "id": "aberdeen",
    "name": "Aberdeen",
    "stadium": {
      "name": "Pittodrie",
      "postcode": "AB24 5QH",
      "capacity": "20,866"
    }
  },
  {
    "id": "celtic",
    "name": "Celtic",
    "stadium": {
      "name": "Celtic Park",
      "postcode": "G40 3RE",
      "capacity": "60,411"
    }
  },
  {
    "id": "motherwell",
    "name": "Motherwell",
    "stadium": {
      "name": "Fir Park",
      "postcode": "ML1 2QN",
      "capacity": "13,677"
    }
  },
  {
    "id": "hearts",
    "name": "Hearts",
    "stadium": {
      "name": "Tynecastle",
      "postcode": "EH11 2NL",
      "capacity": "17,480"
    }
  },
  {
    "id": "partick",
    "name": "Partick Thistle",
    "stadium": {
      "name": "Firhill",
      "postcode": "G20 7AL",
      "capacity": "10,102"
    }
  },
  {
    "id": "ross",
    "name": "Ross County",
    "stadium": {
      "name": "Victoria Park",
      "postcode": "IV15 9QZ",
      "capacity": "6,541"
    }
  },
  {
    "id": "dundee",
    "name": "Dundee",
    "stadium": {
      "name": "Dens Park",
      "postcode": "DD3 7JY",
      "capacity": "11,506"
    }
  },
  {
    "id": "rangers",
    "name": "Rangers",
    "stadium": {
      "name": "Ibrox",
      "postcode": "G51 2XD",
      "capacity": "50,947"
    }
  },
  {
    "id": "inverness",
    "name": "Inverness CT",
    "stadium": {
      "name": "Tulloch Caledonian",
      "postcode": "IV1 1FF",
      "capacity": "7,512"
    }
  },
  {
    "id": "killie",
    "name": "Kilmarnock",
    "stadium": {
      "name": "Rugby Park",
      "postcode": "KA1 2DP",
      "capacity": "17,891"
    }
  },
  {
    "id": "hamilton",
    "name": "Hamilton Academical",
    "stadium": {
      "name": "New Douglas Park",
      "postcode": "ML3 0FT",
      "capacity": "5,510"
    }
  },
  {
    "id": "stj",
    "name": "St Johnstone",
    "stadium": {
      "name": "McDiarmid Park",
      "postcode": "PH1 2SJ",
      "capacity": "10,696"
    }
  }
]}
